STARLINK-3141           
1 49459U 21104BD  26068.72024505  .00017427  00000+0  11123-2 0  9996
2 49459  53.2165 218.9855 0001634  86.3600 273.7579 15.08775434238782
RAISE-4                 
1 67073U 25297B   26068.97636248  .00005682  00000+0  37087-3 0  9993
2 67073  97.4953 219.2703 0012713  22.7159 337.4629 15.08174958 12933
